start=new Date('2023-05-17T00:00:00.000Z').valueOf();
sats=[{"EPHEMERIS_TYPE":"0","LAUNCH_DATE":"2022-10-28","CENTER_NAME":"EARTH","ECCENTRICITY":"0.00010030","MEAN_MOTION":"15.08838451","APOAPSIS":"540.444","OBJECT_ID":"2022-141G","FILE":"3908892","EPOCH":"2023-05-15T16:56:40.142688","MEAN_MOTION_DOT":"-0.00000367","RA_OF_ASC_NODE":"303.5775","OBJECT_TYPE":"PAYLOAD","SITE":"AFWTR","REV_AT_EPOCH":"3051","GP_ID":"231928400","SEMIMAJOR_AXIS":"6917.885","NORAD_CAT_ID":"54163","INCLINATION":"53.2181","BSTAR":"-0.00000497630000","PERIAPSIS":"539.056","TLE_LINE1":"1 54163U 22141G   23135.70602017 -.00000367  00000-0 -49763-5 0  9998","REF_FRAME":"TEME","MEAN_ELEMENT_THEORY":"SGP4","TIME_SYSTEM":"UTC","CLASSIFICATION_TYPE":"U","DECAY_DATE":null,"RCS_SIZE":"LARGE","PERIOD":"95.438","ELEMENT_SET_NO":"999","MEAN_ANOMALY":"271.7055","TLE_LINE2":"2 54163  53.2181 303.5775 0001003  88.4052 271.7055 15.08838451 30511","ARG_OF_PERICENTER":"88.4052","MEAN_MOTION_DDOT":"0.0000000000000","OBJECT_NAME":"STARLINK-5161","COUNTRY_CODE":"US"},{"MEAN_MOTION":"15.08835833","OBJECT_ID":"2022-141H","APOAPSIS":"540.456","EPOCH":"2023-05-15T21:48:08.123904","FILE":"3909472","MEAN_MOTION_DOT":"-0.00000895","OBJECT_TYPE":"PAYLOAD","RA_OF_ASC_NODE":"302.7089","SITE":"AFWTR","REV_AT_EPOCH":"3054","EPHEMERIS_TYPE":"0","LAUNCH_DATE":"2022-10-28","CENTER_NAME":"EARTH","ECCENTRICITY":"0.00010090","SEMIMAJOR_AXIS":"6917.893","NORAD_CAT_ID":"54164","INCLINATION":"53.2178","BSTAR":"-0.00003814500000","PERIAPSIS":"539.060","TLE_LINE1":"1 54164U 22141H   23135.90842736 -.00000895  00000-0 -38145-4 0  9992","GP_ID":"231967686","CLASSIFICATION_TYPE":"U","DECAY_DATE":null,"RCS_SIZE":"LARGE","ELEMENT_SET_NO":"999","PERIOD":"95.438","REF_FRAME":"TEME","MEAN_ELEMENT_THEORY":"SGP4","TIME_SYSTEM":"UTC","MEAN_MOTION_DDOT":"0.0000000000000","OBJECT_NAME":"STARLINK-5278","COUNTRY_CODE":"US","MEAN_ANOMALY":"271.9277","TLE_LINE2":"2 54164  53.2178 302.7089 0001009  88.1830 271.9277 15.08835833 30546","ARG_OF_PERICENTER":"88.1830"},{"GP_ID":"232000410","BSTAR":"0.00006693600000","INCLINATION":"53.2174","TLE_LINE1":"1 54165U 22141J   23136.75019370  .00000778  00000-0  66936-4 0  9994","PERIAPSIS":"539.183","SEMIMAJOR_AXIS":"6917.886","NORAD_CAT_ID":"54165","LAUNCH_DATE":"2022-10-28","CENTER_NAME":"EARTH","ECCENTRICITY":"0.00008210","EPHEMERIS_TYPE":"0","RA_OF_ASC_NODE":"308.6959","OBJECT_TYPE":"PAYLOAD","MEAN_MOTION_DOT":"0.00000778","REV_AT_EPOCH":"3053","SITE":"AFWTR","MEAN_MOTION":"15.08838064","FILE":"3909742","EPOCH":"2023-05-16T18:00:16.735680","OBJECT_ID":"2022-141J","APOAPSIS":"540.319","ARG_OF_PERICENTER":"80.1078","MEAN_ANOMALY":"280.0007","TLE_LINE2":"2 54165  53.2174 308.6959 0000821  80.1078 280.0007 15.08838064 30531","COUNTRY_CODE":"US","MEAN_MOTION_DDOT":"0.0000000000000","OBJECT_NAME":"STARLINK-5279","MEAN_ELEMENT_THEORY":"SGP4","REF_FRAME":"TEME","TIME_SYSTEM":"UTC","ELEMENT_SET_NO":"999","PERIOD":"95.438","CLASSIFICATION_TYPE":"U","RCS_SIZE":"LARGE","DECAY_DATE":null},{"TIME_SYSTEM":"UTC","MEAN_ELEMENT_THEORY":"SGP4","REF_FRAME":"TEME","PERIOD":"95.438","ELEMENT_SET_NO":"999","RCS_SIZE":"LARGE","DECAY_DATE":null,"CLASSIFICATION_TYPE":"U","ARG_OF_PERICENTER":"99.8221","TLE_LINE2":"2 54166  53.2155 303.2594 0001032  99.8221 260.2887 15.08839062 30523","MEAN_ANOMALY":"260.2887","COUNTRY_CODE":"US","OBJECT_NAME":"STARLINK-5280","MEAN_MOTION_DDOT":"0.0000000000000","ECCENTRICITY":"0.00010320","LAUNCH_DATE":"2022-10-28","CENTER_NAME":"EARTH","EPHEMERIS_TYPE":"0","REV_AT_EPOCH":"3052","SITE":"AFWTR","OBJECT_TYPE":"PAYLOAD","RA_OF_ASC_NODE":"303.2594","MEAN_MOTION_DOT":"-0.00000279","FILE":"3908892","EPOCH":"2023-05-15T18:26:44.490336","APOAPSIS":"540.462","OBJECT_ID":"2022-141K","MEAN_MOTION":"15.08839062","GP_ID":"231929145","PERIAPSIS":"539.034","TLE_LINE1":"1 54166U 22141K   23135.76857049 -.00000279  00000-0  57456-6 0  9994","BSTAR":"0.00000057456000","INCLINATION":"53.2155","NORAD_CAT_ID":"54166","SEMIMAJOR_AXIS":"6917.883"},{"GP_ID":"231937911","INCLINATION":"53.2174","BSTAR":"0.00006314200000","TLE_LINE1":"1 54167U 22141L   23136.46681294  .00000717  00000-0  63142-4 0  9993","PERIAPSIS":"538.917","SEMIMAJOR_AXIS":"6917.887","NORAD_CAT_ID":"54167","CENTER_NAME":"EARTH","LAUNCH_DATE":"2022-10-28","ECCENTRICITY":"0.00012070","EPHEMERIS_TYPE":"0","MEAN_MOTION_DOT":"0.00000717","RA_OF_ASC_NODE":"309.7738","OBJECT_TYPE":"PAYLOAD","SITE":"AFWTR","REV_AT_EPOCH":"3048","MEAN_MOTION":"15.08837899","APOAPSIS":"540.587","OBJECT_ID":"2022-141L","FILE":"3909239","EPOCH":"2023-05-16T11:12:12.638016","ARG_OF_PERICENTER":"85.9255","MEAN_ANOMALY":"274.1875","TLE_LINE2":"2 54167  53.2174 309.7738 0001207  85.9255 274.1875 15.08837899 30485","COUNTRY_CODE":"US","MEAN_MOTION_DDOT":"0.0000000000000","OBJECT_NAME":"STARLINK-5243","REF_FRAME":"TEME","MEAN_ELEMENT_THEORY":"SGP4","TIME_SYSTEM":"UTC","PERIOD":"95.438","ELEMENT_SET_NO":"999","CLASSIFICATION_TYPE":"U","DECAY_DATE":null,"RCS_SIZE":"LARGE"},{"MEAN_MOTION_DDOT":"0.0000000000000","OBJECT_NAME":"STARLINK-5245","COUNTRY_CODE":"US","MEAN_ANOMALY":"255.2394","TLE_LINE2":"2 54168  53.2175 303.2366 0001066 104.8716 255.2394 15.08838140 30520","ARG_OF_PERICENTER":"104.8716","CLASSIFICATION_TYPE":"U","RCS_SIZE":"LARGE","DECAY_DATE":null,"ELEMENT_SET_NO":"999","PERIOD":"95.438","MEAN_ELEMENT_THEORY":"SGP4","REF_FRAME":"TEME","TIME_SYSTEM":"UTC","SEMIMAJOR_AXIS":"6917.886","NORAD_CAT_ID":"54168","BSTAR":"-0.00001514200000","INCLINATION":"53.2175","TLE_LINE1":"1 54168U 22141M   23135.76488829 -.00000529  00000-0 -15142-4 0  9995","PERIAPSIS":"539.014","GP_ID":"231928150","MEAN_MOTION":"15.08838140","EPOCH":"2023-05-15T18:21:26.348256","FILE":"3908892","OBJECT_ID":"2022-141M","APOAPSIS":"540.489","OBJECT_TYPE":"PAYLOAD","RA_OF_ASC_NODE":"303.2366","MEAN_MOTION_DOT":"-0.00000529","REV_AT_EPOCH":"3052","SITE":"AFWTR","EPHEMERIS_TYPE":"0","LAUNCH_DATE":"2022-10-28","CENTER_NAME":"EARTH","ECCENTRICITY":"0.00010660"},{"SEMIMAJOR_AXIS":"6917.923","NORAD_CAT_ID":"54169","INCLINATION":"53.2166","BSTAR":"0.00029825000000","PERIAPSIS":"539.310","TLE_LINE1":"1 54169U 22141N   23136.70690647  .00004460  00000-0  29825-3 0  9992","GP_ID":"231999911","MEAN_MOTION":"15.08826172","OBJECT_ID":"2022-141N","APOAPSIS":"540.266","FILE":"3909742","EPOCH":"2023-05-16T16:57:56.719008","MEAN_MOTION_DOT":"0.00004460","OBJECT_TYPE":"PAYLOAD","RA_OF_ASC_NODE":"298.4629","SITE":"AFWTR","REV_AT_EPOCH":"3067","EPHEMERIS_TYPE":"0","LAUNCH_DATE":"2022-10-28","CENTER_NAME":"EARTH","ECCENTRICITY":"0.00006910","MEAN_MOTION_DDOT":"0.0000000000000","OBJECT_NAME":"STARLINK-5282","COUNTRY_CODE":"US","MEAN_ANOMALY":"275.1173","TLE_LINE2":"2 54169  53.2166 298.4629 0000691  84.9898 275.1173 15.08826172 30674","ARG_OF_PERICENTER":"84.9898","CLASSIFICATION_TYPE":"U","DECAY_DATE":null,"RCS_SIZE":"LARGE","PERIOD":"95.438","ELEMENT_SET_NO":"999","REF_FRAME":"TEME","MEAN_ELEMENT_THEORY":"SGP4","TIME_SYSTEM":"UTC"},{"GP_ID":"232000161","NORAD_CAT_ID":"54170","SEMIMAJOR_AXIS":"6917.889","PERIAPSIS":"539.130","TLE_LINE1":"1 54170U 22141P   23136.75480565  .00001119  00000-0  88350-4 0  9992","BSTAR":"0.00008835000000","INCLINATION":"53.2150","EPHEMERIS_TYPE":"0","ECCENTRICITY":"0.00009020","CENTER_NAME":"EARTH","LAUNCH_DATE":"2022-10-28","EPOCH":"2023-05-16T18:06:55.208160","FILE":"3909742","APOAPSIS":"540.378","OBJECT_ID":"2022-141P","MEAN_MOTION":"15.08837302","REV_AT_EPOCH":"3067","SITE":"AFWTR","OBJECT_TYPE":"PAYLOAD","RA_OF_ASC_NODE":"298.7537","MEAN_MOTION_DOT":"0.00001119","TLE_LINE2":"2 54170  53.2150 298.7537 0000902  80.5982 279.5112 15.08837302 30679","MEAN_ANOMALY":"279.5112","ARG_OF_PERICENTER":"80.5982","OBJECT_NAME":"STARLINK-5155","MEAN_MOTION_DDOT":"0.0000000000000","COUNTRY_CODE":"US","TIME_SYSTEM":"UTC","MEAN_ELEMENT_THEORY":"SGP4","REF_FRAME":"TEME","RCS_SIZE":"LARGE","DECAY_DATE":null,"CLASSIFICATION_TYPE":"U","ELEMENT_SET_NO":"999","PERIOD":"95.438"},{"GP_ID":"232000913","TLE_LINE1":"1 54171U 22141Q   23136.73776059  .00000879  00000-0  73310-4 0  9999","PERIAPSIS":"539.019","BSTAR":"0.00007331000000","INCLINATION":"53.2157","NORAD_CAT_ID":"54171","SEMIMAJOR_AXIS":"6917.884","ECCENTRICITY":"0.00010550","CENTER_NAME":"EARTH","LAUNCH_DATE":"2022-10-28","EPHEMERIS_TYPE":"0","REV_AT_EPOCH":"3060","SITE":"AFWTR","RA_OF_ASC_NODE":"303.6264","OBJECT_TYPE":"PAYLOAD","MEAN_MOTION_DOT":"0.00000879","EPOCH":"2023-05-16T17:42:22.514976","FILE":"3909742","APOAPSIS":"540.479","OBJECT_ID":"2022-141Q","MEAN_MOTION":"15.08838724","ARG_OF_PERICENTER":"81.9066","TLE_LINE2":"2 54171  53.2157 303.6264 0001055  81.9066 278.2046 15.08838724 30602","MEAN_ANOMALY":"278.2046","COUNTRY_CODE":"US","OBJECT_NAME":"STARLINK-5229","MEAN_MOTION_DDOT":"0.0000000000000","TIME_SYSTEM":"UTC","MEAN_ELEMENT_THEORY":"SGP4","REF_FRAME":"TEME","ELEMENT_SET_NO":"999","PERIOD":"95.438","RCS_SIZE":"LARGE","DECAY_DATE":null,"CLASSIFICATION_TYPE":"U"},{"REF_FRAME":"TEME","MEAN_ELEMENT_THEORY":"SGP4","TIME_SYSTEM":"UTC","PERIOD":"95.437","ELEMENT_SET_NO":"999","CLASSIFICATION_TYPE":"U","DECAY_DATE":null,"RCS_SIZE":"LARGE","ARG_OF_PERICENTER":"125.0494","MEAN_ANOMALY":"235.0584","TLE_LINE2":"2 54172  53.2157 298.7099 0000916 125.0494 235.0584 15.08843237 30673","COUNTRY_CODE":"US","MEAN_MOTION_DDOT":"0.0000000000000","OBJECT_NAME":"STARLINK-5117","LAUNCH_DATE":"2022-10-28","CENTER_NAME":"EARTH","ECCENTRICITY":"0.00009160","EPHEMERIS_TYPE":"0","MEAN_MOTION_DOT":"-0.00000435","OBJECT_TYPE":"PAYLOAD","RA_OF_ASC_NODE":"298.7099","SITE":"AFWTR","REV_AT_EPOCH":"3067","MEAN_MOTION":"15.08843237","APOAPSIS":"540.369","OBJECT_ID":"2022-141R","FILE":"3909742","EPOCH":"2023-05-16T17:56:18.155040","GP_ID":"232001663","INCLINATION":"53.2157","BSTAR":"-0.00000923560000","TLE_LINE1":"1 54172U 22141R   23136.74743235 -.00000435  00000-0 -92356-5 0  9993","PERIAPSIS":"539.102","SEMIMAJOR_AXIS":"6917.870","NORAD_CAT_ID":"54172"}];
